STARLINK-36975          
1 67993U 26039H   26072.91668981 -.01930467  00000+0 -14802-1 0  9996
2 67993  42.9992  29.0164 0001419 264.0480 130.2223 15.74551285  3551
STARLINK-36993          
1 67994U 26039J   26072.91668981  .00060305  00000+0  28765-3 0  9994
2 67994  42.9994  28.9465 0001475 265.9170 156.7928 15.81962237  3550
STARLINK-36968          
1 67995U 26039K   26072.91668981 -.01966729  00000+0 -17163-1 0  9991
2 67995  42.9991  29.0530 0001313 264.2191 115.2930 15.71081886  3553
STARLINK-36979          
1 67996U 26039L   26072.91668981  .00090555  00000+0  42931-3 0  9997
2 67996  42.9994  28.9351 0002119 237.8734 189.1172 15.81954263  3557
STARLINK-36994          
1 67997U 26039M   26072.91668981 -.01932392  00000+0 -11240-1 0  9992
2 67997  42.9992  28.9046 0001524 267.5480 171.4231 15.80641541  3555
STARLINK-36988          
1 67998U 26039N   26072.91668981 -.01922987  00000+0 -10645-1 0  9990
2 67998  42.9993  28.9131 0001281 284.0103 151.4401 15.81683272  3553
STARLINK-36926          
1 67999U 26039P   26072.91668981 -.01926712  00000+0 -11105-1 0  9993
2 67999  42.9990  28.8930 0001666 277.7922 165.6544 15.80826647  3551
STARLINK-36931          
1 68000U 26039Q   26072.91668981  .00093278  00000+0  44236-3 0  9999
2 68000  42.9993  28.8817 0001503 257.5598 190.7989 15.81938231  3553
STARLINK-36903          
1 68001U 26039R   26072.91668981 -.01929912  00000+0 -11186-1 0  9992
2 68001  42.9992  28.8721 0001174 271.0725 180.7915 15.80718063  3550
STARLINK-36898          
1 68002U 26039S   26072.91668981 -.00015931  00000+0 -73322-4 0  9992
2 68002  42.9993  28.8480 0001685 225.8132 235.3398 15.81997805  3556
STARLINK-36862          
1 68003U 26039T   26072.91668981 -.01929614  00000+0 -10706-1 0  9990
2 68003  42.9992  28.8268 0001221 265.2582 204.3637 15.81646208  3553
STARLINK-36888          
1 68004U 26039U   26072.91668981 -.01957825  00000+0 -11049-1 0  9997
2 68004  42.9991  28.8597 0001309 280.9928 175.6573 15.81332616  3557
