CCSDS_OMM_VERS = 2.0
CREATION_DATE  = 
ORIGINATOR     = 

OBJECT_NAME    = STARLINK-36975
OBJECT_ID      = 2026-039H
CENTER_NAME    = EARTH
REF_FRAME      = TEME
TIME_SYSTEM    = UTC
MEAN_ELEMENT_THEORY = SGP/SGP4

EPOCH          = 2026-03-13T22:00:01.999584
MEAN_MOTION    = 15.74551285
ECCENTRICITY   = .00014191
INCLINATION    = 42.9992
RA_OF_ASC_NODE = 29.0164
ARG_OF_PERICENTER = 264.0480
MEAN_ANOMALY   = 130.2223

EPHEMERIS_TYPE = 0
CLASSIFICATION_TYPE = U
NORAD_CAT_ID   = 67993
ELEMENT_SET_NO = 999
REV_AT_EPOCH   = 355
BSTAR          = -.14802348E-1
MEAN_MOTION_DOT = -.1930467E-1
MEAN_MOTION_DDOT = 0

CCSDS_OMM_VERS = 2.0
CREATION_DATE  = 
ORIGINATOR     = 

OBJECT_NAME    = STARLINK-36993
OBJECT_ID      = 2026-039J
CENTER_NAME    = EARTH
REF_FRAME      = TEME
TIME_SYSTEM    = UTC
MEAN_ELEMENT_THEORY = SGP/SGP4

EPOCH          = 2026-03-13T22:00:01.999584
MEAN_MOTION    = 15.81962237
ECCENTRICITY   = .00014755
INCLINATION    = 42.9994
RA_OF_ASC_NODE = 28.9465
ARG_OF_PERICENTER = 265.9170
MEAN_ANOMALY   = 156.7928

EPHEMERIS_TYPE = 0
CLASSIFICATION_TYPE = U
NORAD_CAT_ID   = 67994
ELEMENT_SET_NO = 999
REV_AT_EPOCH   = 355
BSTAR          = .28765086E-3
MEAN_MOTION_DOT = .60305E-3
MEAN_MOTION_DDOT = 0

CCSDS_OMM_VERS = 2.0
CREATION_DATE  = 
ORIGINATOR     = 

OBJECT_NAME    = STARLINK-36968
OBJECT_ID      = 2026-039K
CENTER_NAME    = EARTH
REF_FRAME      = TEME
TIME_SYSTEM    = UTC
MEAN_ELEMENT_THEORY = SGP/SGP4

EPOCH          = 2026-03-13T22:00:01.999584
MEAN_MOTION    = 15.71081886
ECCENTRICITY   = .0001313
INCLINATION    = 42.9991
RA_OF_ASC_NODE = 29.0530
ARG_OF_PERICENTER = 264.2191
MEAN_ANOMALY   = 115.2930

EPHEMERIS_TYPE = 0
CLASSIFICATION_TYPE = U
NORAD_CAT_ID   = 67995
ELEMENT_SET_NO = 999
REV_AT_EPOCH   = 355
BSTAR          = -.17163123E-1
MEAN_MOTION_DOT = -.1966729E-1
MEAN_MOTION_DDOT = 0

CCSDS_OMM_VERS = 2.0
CREATION_DATE  = 
ORIGINATOR     = 

OBJECT_NAME    = STARLINK-36979
OBJECT_ID      = 2026-039L
CENTER_NAME    = EARTH
REF_FRAME      = TEME
TIME_SYSTEM    = UTC
MEAN_ELEMENT_THEORY = SGP/SGP4

EPOCH          = 2026-03-13T22:00:01.999584
MEAN_MOTION    = 15.81954263
ECCENTRICITY   = .0002119
INCLINATION    = 42.9994
RA_OF_ASC_NODE = 28.9351
ARG_OF_PERICENTER = 237.8734
MEAN_ANOMALY   = 189.1172

EPHEMERIS_TYPE = 0
CLASSIFICATION_TYPE = U
NORAD_CAT_ID   = 67996
ELEMENT_SET_NO = 999
REV_AT_EPOCH   = 355
BSTAR          = .42930655E-3
MEAN_MOTION_DOT = .90555E-3
MEAN_MOTION_DDOT = 0

CCSDS_OMM_VERS = 2.0
CREATION_DATE  = 
ORIGINATOR     = 

OBJECT_NAME    = STARLINK-36994
OBJECT_ID      = 2026-039M
CENTER_NAME    = EARTH
REF_FRAME      = TEME
TIME_SYSTEM    = UTC
MEAN_ELEMENT_THEORY = SGP/SGP4

EPOCH          = 2026-03-13T22:00:01.999584
MEAN_MOTION    = 15.80641541
ECCENTRICITY   = .00015246
INCLINATION    = 42.9992
RA_OF_ASC_NODE = 28.9046
ARG_OF_PERICENTER = 267.5480
MEAN_ANOMALY   = 171.4231

EPHEMERIS_TYPE = 0
CLASSIFICATION_TYPE = U
NORAD_CAT_ID   = 67997
ELEMENT_SET_NO = 999
REV_AT_EPOCH   = 355
BSTAR          = -.1124042E-1
MEAN_MOTION_DOT = -.1932392E-1
MEAN_MOTION_DDOT = 0

CCSDS_OMM_VERS = 2.0
CREATION_DATE  = 
ORIGINATOR     = 

OBJECT_NAME    = STARLINK-36988
OBJECT_ID      = 2026-039N
CENTER_NAME    = EARTH
REF_FRAME      = TEME
TIME_SYSTEM    = UTC
MEAN_ELEMENT_THEORY = SGP/SGP4

EPOCH          = 2026-03-13T22:00:01.999584
MEAN_MOTION    = 15.81683272
ECCENTRICITY   = .00012813
INCLINATION    = 42.9993
RA_OF_ASC_NODE = 28.9131
ARG_OF_PERICENTER = 284.0103
MEAN_ANOMALY   = 151.4401

EPHEMERIS_TYPE = 0
CLASSIFICATION_TYPE = U
NORAD_CAT_ID   = 67998
ELEMENT_SET_NO = 999
REV_AT_EPOCH   = 355
BSTAR          = -.10644846E-1
MEAN_MOTION_DOT = -.1922987E-1
MEAN_MOTION_DDOT = 0

CCSDS_OMM_VERS = 2.0
CREATION_DATE  = 
ORIGINATOR     = 

OBJECT_NAME    = STARLINK-36926
OBJECT_ID      = 2026-039P
CENTER_NAME    = EARTH
REF_FRAME      = TEME
TIME_SYSTEM    = UTC
MEAN_ELEMENT_THEORY = SGP/SGP4

EPOCH          = 2026-03-13T22:00:01.999584
MEAN_MOTION    = 15.80826647
ECCENTRICITY   = .00016669
INCLINATION    = 42.9990
RA_OF_ASC_NODE = 28.8930
ARG_OF_PERICENTER = 277.7922
MEAN_ANOMALY   = 165.6544

EPHEMERIS_TYPE = 0
CLASSIFICATION_TYPE = U
NORAD_CAT_ID   = 67999
ELEMENT_SET_NO = 999
REV_AT_EPOCH   = 355
BSTAR          = -.11104717E-1
MEAN_MOTION_DOT = -.1926712E-1
MEAN_MOTION_DDOT = 0

CCSDS_OMM_VERS = 2.0
CREATION_DATE  = 
ORIGINATOR     = 

OBJECT_NAME    = STARLINK-36931
OBJECT_ID      = 2026-039Q
CENTER_NAME    = EARTH
REF_FRAME      = TEME
TIME_SYSTEM    = UTC
MEAN_ELEMENT_THEORY = SGP/SGP4

EPOCH          = 2026-03-13T22:00:01.999584
MEAN_MOTION    = 15.81938231
ECCENTRICITY   = .0001503
INCLINATION    = 42.9993
RA_OF_ASC_NODE = 28.8817
ARG_OF_PERICENTER = 257.5598
MEAN_ANOMALY   = 190.7989

EPHEMERIS_TYPE = 0
CLASSIFICATION_TYPE = U
NORAD_CAT_ID   = 68000
ELEMENT_SET_NO = 999
REV_AT_EPOCH   = 355
BSTAR          = .44235665E-3
MEAN_MOTION_DOT = .93278E-3
MEAN_MOTION_DDOT = 0

CCSDS_OMM_VERS = 2.0
CREATION_DATE  = 
ORIGINATOR     = 

OBJECT_NAME    = STARLINK-36903
OBJECT_ID      = 2026-039R
CENTER_NAME    = EARTH
REF_FRAME      = TEME
TIME_SYSTEM    = UTC
MEAN_ELEMENT_THEORY = SGP/SGP4

EPOCH          = 2026-03-13T22:00:01.999584
MEAN_MOTION    = 15.80718063
ECCENTRICITY   = .0001174
INCLINATION    = 42.9992
RA_OF_ASC_NODE = 28.8721
ARG_OF_PERICENTER = 271.0725
MEAN_ANOMALY   = 180.7915

EPHEMERIS_TYPE = 0
CLASSIFICATION_TYPE = U
NORAD_CAT_ID   = 68001
ELEMENT_SET_NO = 999
REV_AT_EPOCH   = 355
BSTAR          = -.11185989E-1
MEAN_MOTION_DOT = -.1929912E-1
MEAN_MOTION_DDOT = 0

CCSDS_OMM_VERS = 2.0
CREATION_DATE  = 
ORIGINATOR     = 

OBJECT_NAME    = STARLINK-36898
OBJECT_ID      = 2026-039S
CENTER_NAME    = EARTH
REF_FRAME      = TEME
TIME_SYSTEM    = UTC
MEAN_ELEMENT_THEORY = SGP/SGP4

EPOCH          = 2026-03-13T22:00:01.999584
MEAN_MOTION    = 15.81997805
ECCENTRICITY   = .00016857
INCLINATION    = 42.9993
RA_OF_ASC_NODE = 28.8480
ARG_OF_PERICENTER = 225.8132
MEAN_ANOMALY   = 235.3398

EPHEMERIS_TYPE = 0
CLASSIFICATION_TYPE = U
NORAD_CAT_ID   = 68002
ELEMENT_SET_NO = 999
REV_AT_EPOCH   = 355
BSTAR          = -.73321755E-4
MEAN_MOTION_DOT = -.15931E-3
MEAN_MOTION_DDOT = 0

CCSDS_OMM_VERS = 2.0
CREATION_DATE  = 
ORIGINATOR     = 

OBJECT_NAME    = STARLINK-36862
OBJECT_ID      = 2026-039T
CENTER_NAME    = EARTH
REF_FRAME      = TEME
TIME_SYSTEM    = UTC
MEAN_ELEMENT_THEORY = SGP/SGP4

EPOCH          = 2026-03-13T22:00:01.999584
MEAN_MOTION    = 15.81646208
ECCENTRICITY   = .00012211
INCLINATION    = 42.9992
RA_OF_ASC_NODE = 28.8268
ARG_OF_PERICENTER = 265.2582
MEAN_ANOMALY   = 204.3637

EPHEMERIS_TYPE = 0
CLASSIFICATION_TYPE = U
NORAD_CAT_ID   = 68003
ELEMENT_SET_NO = 999
REV_AT_EPOCH   = 355
BSTAR          = -.10706269E-1
MEAN_MOTION_DOT = -.1929614E-1
MEAN_MOTION_DDOT = 0

CCSDS_OMM_VERS = 2.0
CREATION_DATE  = 
ORIGINATOR     = 

OBJECT_NAME    = STARLINK-36888
OBJECT_ID      = 2026-039U
CENTER_NAME    = EARTH
REF_FRAME      = TEME
TIME_SYSTEM    = UTC
MEAN_ELEMENT_THEORY = SGP/SGP4

EPOCH          = 2026-03-13T22:00:01.999584
MEAN_MOTION    = 15.81332616
ECCENTRICITY   = .00013095
INCLINATION    = 42.9991
RA_OF_ASC_NODE = 28.8597
ARG_OF_PERICENTER = 280.9928
MEAN_ANOMALY   = 175.6573

EPHEMERIS_TYPE = 0
CLASSIFICATION_TYPE = U
NORAD_CAT_ID   = 68004
ELEMENT_SET_NO = 999
REV_AT_EPOCH   = 355
BSTAR          = -.11048983E-1
MEAN_MOTION_DOT = -.1957825E-1
MEAN_MOTION_DDOT = 0

